OBJECT_NAME,OBJECT_ID,EPOCH,MEAN_MOTION,ECCENTRICITY,INCLINATION,RA_OF_ASC_NODE,ARG_OF_PERICENTER,MEAN_ANOMALY,EPHEMERIS_TYPE,CLASSIFICATION_TYPE,NORAD_CAT_ID,ELEMENT_SET_NO,REV_AT_EPOCH,BSTAR,MEAN_MOTION_DOT,MEAN_MOTION_DDOT
STARLINK-3780,2022-041T,2026-06-10T00:09:13.538016,15.08855417,.00014065,53.1666,54.6415,102.5745,257.5404,0,U,52278,999,22830,.10139974E-3,.1327E-4,0
STARLINK-3764,2022-041V,2026-06-09T23:53:21.564672,15.08830020,.00014253,53.1657,54.6925,89.0837,271.0317,0,U,52280,999,22830,-.9183441E-5,-.434E-5,0
STARLINK-3779,2022-041W,2026-06-10T00:15:55.945152,15.08833653,.00013517,53.1624,54.6190,100.8683,259.2461,0,U,52281,999,22830,.14724156E-4,-.54E-6,0
STARLINK-3783,2022-041X,2026-06-09T23:44:06.695232,15.08821744,.00014597,53.1641,44.7224,87.6819,272.4340,0,U,52282,999,22843,-.14661628E-4,-.521E-5,0
STARLINK-3789,2022-041Y,2026-06-10T00:03:57.688992,15.08796261,.00012931,53.1620,54.6581,96.9612,263.1526,0,U,52283,999,22830,.49796958E-3,.7637E-4,0
STARLINK-3561,2022-041Z,2026-06-09T23:33:29.234304,15.08836451,.00012993,53.1619,44.7533,80.8757,279.2381,0,U,52284,999,22843,-.18149094E-4,-.577E-5,0
STARLINK-3802,2022-041AB,2026-06-09T23:22:52.970880,15.08844331,.00012778,53.1627,44.7865,95.2345,264.8792,0,U,52286,999,22843,-.12987222E-3,-.2355E-4,0
STARLINK-3822,2022-041AC,2026-06-09T23:48:04.321152,15.08830312,.00013556,53.1616,54.7074,102.5181,257.5962,0,U,52287,999,22830,.20524654E-3,.2979E-4,0
STARLINK-3776,2022-041AD,2026-06-09T23:17:35.316960,15.08830102,.00013723,53.1643,44.8044,88.8311,271.2837,0,U,52288,999,22843,-.19100404E-4,-.592E-5,0
STARLINK-3751,2022-041AE,2026-06-09T23:38:47.043744,15.08838835,.00014279,53.1634,44.7312,86.0530,274.0625,0,U,52289,999,22843,-.30588332E-4,-.775E-5,0
STARLINK-3772,2022-041AF,2026-06-09T23:03:03.922848,15.08840621,.00014437,53.1641,44.8473,88.4171,271.6986,0,U,52290,999,22843,-.85393299E-4,-.1647E-4,0
STARLINK-3753,2022-041AH,2026-06-09T22:56:23.145216,15.08833878,.00012327,53.1618,44.8685,90.6962,269.4170,0,U,52292,999,22843,.1909697E-4,.16E-6,0
STARLINK-3771,2022-041AJ,2026-06-09T23:13:39.951264,15.08834053,.00014313,53.1645,44.8257,92.2236,267.8920,0,U,52293,999,22843,.34010109E-4,.253E-5,0
STARLINK-3777,2022-041AK,2026-06-09T22:51:05.105088,15.08832868,.00013589,53.1630,44.8857,90.5200,269.5947,0,U,52294,999,22843,-.6055142E-5,-.384E-5,0
STARLINK-3765,2022-041AL,2026-06-09T23:06:59.158944,15.08832385,.00013932,53.1629,44.8407,87.6454,272.4697,0,U,52295,999,22843,.9294583E-5,-.14E-5,0
STARLINK-3766,2022-041AM,2026-06-09T22:35:11.464224,15.08836649,.0001454,53.1649,44.9372,88.9629,271.1529,0,U,52296,999,22843,.43719379E-4,.408E-5,0
STARLINK-3758,2022-041AN,2026-06-09T23:01:41.332224,15.08832654,.00014,53.1625,44.8552,88.1591,271.9561,0,U,52297,999,22843,.25633783E-4,.12E-5,0
STARLINK-3760,2022-041AP,2026-06-09T23:12:10.719072,15.08864370,.00013925,53.1632,44.4359,96.0269,264.0881,0,U,52298,999,22844,.2428818E-3,.3582E-4,0
STARLINK-3769,2022-041AR,2026-06-09T23:54:41.289408,15.08786645,.00013195,53.1613,44.6876,108.2508,251.8627,0,U,52300,999,22966,.69810974E-3,.10824E-3,0
STARLINK-3768,2022-041AS,2026-06-09T22:45:48.519936,15.08827426,.00009718,53.1627,44.9026,106.5752,253.5346,0,U,52301,999,22843,.19195414E-3,.2767E-4,0
STARLINK-3564,2022-041AT,2026-06-09T22:04:43.715424,15.08831590,.00009479,53.1651,35.0307,86.4675,273.6424,0,U,52302,999,22856,-.42422658E-4,-.963E-5,0
STARLINK-3742,2022-041AU,2026-06-09T23:59:59.093664,15.08795509,.00013769,53.1617,44.6705,106.0245,254.0898,0,U,52303,999,22966,.56778001E-3,.8749E-4,0
STARLINK-3744,2022-041AV,2026-06-09T21:59:25.181088,15.08835611,.00011544,53.1651,35.0487,93.0008,267.1116,0,U,52304,999,22856,.52310396E-4,.545E-5,0
STARLINK-3724,2022-041AW,2026-06-09T22:29:55.876128,15.08833907,.00012463,53.1655,45.0596,103.2813,256.8318,0,U,52305,999,22843,.31883019E-4,.219E-5,0
STARLINK-3747,2022-041AX,2026-06-10T00:00:04.000320,15.08831153,.00013432,53.1595,34.6718,82.3569,33.0684,0,U,52306,999,581,.11166842E-2,.17525E-3,0
STARLINK-3755,2022-041AY,2026-06-09T23:49:23.158560,15.08834587,.00012626,53.1628,44.6961,70.8918,289.2210,0,U,52307,999,22844,-.28927855E-4,-.748E-5,0
STARLINK-3756,2022-041BA,2026-06-09T21:48:49.378176,15.08833596,.00012102,53.1637,35.0796,89.1214,270.9917,0,U,52309,999,22978,.10690352E-3,.1414E-4,0
STARLINK-3688,2022-041BB,2026-06-09T23:18:55.196352,15.08835514,.00012318,53.1620,34.8653,99.1895,260.9235,0,U,52310,999,22979,.10322169E-4,-.124E-5,0
STARLINK-3750,2022-041BC,2026-06-09T23:13:37.837056,15.08830546,.00018082,53.1640,34.8151,57.0420,303.0746,0,U,52311,999,22979,.13864544E-3,.1919E-4,0
STARLINK-3752,2022-041BD,2026-06-09T22:15:18.610272,15.08837525,.00020534,53.1616,34.9492,88.2336,271.8890,0,U,52312,999,22979,-.29393806E-4,-.756E-5,0
