STARLINK-3780           
1 52278U 22041T   26161.00640669  .00001327  00000+0  10140-3 0  9991
2 52278  53.1666  54.6415 0001406 102.5745 257.5404 15.08855417228309
STARLINK-3764           
1 52280U 22041V   26160.99538848 -.00000434  00000+0 -91834-5 0  9997
2 52280  53.1657  54.6925 0001425  89.0837 271.0317 15.08830020228307
STARLINK-3779           
1 52281U 22041W   26161.01106418 -.00000054  00000+0  14724-4 0  9995
2 52281  53.1624  54.6190 0001351 100.8683 259.2461 15.08833653228308
STARLINK-3783           
1 52282U 22041X   26160.98896638 -.00000521  00000+0 -14662-4 0  9992
2 52282  53.1641  44.7224 0001459  87.6819 272.4340 15.08821744228433
STARLINK-3789           
1 52283U 22041Y   26161.00275103  .00007637  00000+0  49797-3 0  9994
2 52283  53.1620  54.6581 0001293  96.9612 263.1526 15.08796261228301
STARLINK-3561           
1 52284U 22041Z   26160.98158836 -.00000577  00000+0 -18149-4 0  9990
2 52284  53.1619  44.7533 0001299  80.8757 279.2381 15.08836451228432
STARLINK-3802           
1 52286U 22041AB  26160.97422420 -.00002355  00000+0 -12987-3 0  9993
2 52286  53.1627  44.7865 0001277  95.2345 264.8792 15.08844331228432
STARLINK-3822           
1 52287U 22041AC  26160.99171668  .00002979  00000+0  20525-3 0  9998
2 52287  53.1616  54.7074 0001355 102.5181 257.5962 15.08830312228309
STARLINK-3776           
1 52288U 22041AD  26160.97054765 -.00000592  00000+0 -19100-4 0  9994
2 52288  53.1643  44.8044 0001372  88.8311 271.2837 15.08830102228432
STARLINK-3751           
1 52289U 22041AE  26160.98526671 -.00000775  00000+0 -30588-4 0  9992
2 52289  53.1634  44.7312 0001427  86.0530 274.0625 15.08838835228431
STARLINK-3772           
1 52290U 22041AF  26160.96046207 -.00001647  00000+0 -85393-4 0  9997
2 52290  53.1641  44.8473 0001443  88.4171 271.6986 15.08840621228434
STARLINK-3753           
1 52292U 22041AH  26160.95582344  .00000016  00000+0  19097-4 0  9990
2 52292  53.1618  44.8685 0001232  90.6962 269.4170 15.08833878228430
STARLINK-3771           
1 52293U 22041AJ  26160.96782351  .00000253  00000+0  34010-4 0  9997
2 52293  53.1645  44.8257 0001431  92.2236 267.8920 15.08834053228430
STARLINK-3777           
1 52294U 22041AK  26160.95214242 -.00000384  00000+0 -60551-5 0  9993
2 52294  53.1630  44.8857 0001358  90.5200 269.5947 15.08832868228431
STARLINK-3765           
1 52295U 22041AL  26160.96318471 -.00000140  00000+0  92946-5 0  9996
2 52295  53.1629  44.8407 0001393  87.6454 272.4697 15.08832385228437
STARLINK-3766           
1 52296U 22041AM  26160.94110491  .00000408  00000+0  43719-4 0  9996
2 52296  53.1649  44.9372 0001454  88.9629 271.1529 15.08836649228435
STARLINK-3758           
1 52297U 22041AN  26160.95950616  .00000120  00000+0  25634-4 0  9996
2 52297  53.1625  44.8552 0001400  88.1591 271.9561 15.08832654228436
STARLINK-3760           
1 52298U 22041AP  26160.96679073  .00003582  00000+0  24288-3 0  9991
2 52298  53.1632  44.4359 0001392  96.0269 264.0881 15.08864370228445
STARLINK-3769           
1 52300U 22041AR  26160.99631122  .00010824  00000+0  69811-3 0  9999
2 52300  53.1613  44.6876 0001319 108.2508 251.8627 15.08786645229660
STARLINK-3768           
1 52301U 22041AS  26160.94847824  .00002767  00000+0  19195-3 0  9990
2 52301  53.1627  44.9026 0000971 106.5752 253.5346 15.08827426228435
STARLINK-3564           
1 52302U 22041AT  26160.91995041 -.00000963  00000+0 -42423-4 0  9992
2 52302  53.1651  35.0307 0000947  86.4675 273.6424 15.08831590228560
STARLINK-3742           
1 52303U 22041AU  26160.99998951  .00008749  00000+0  56778-3 0  9999
2 52303  53.1617  44.6705 0001376 106.0245 254.0898 15.08795509229669
STARLINK-3744           
1 52304U 22041AV  26160.91626367  .00000545  00000+0  52310-4 0  9996
2 52304  53.1651  35.0487 0001154  93.0008 267.1116 15.08835611228560
STARLINK-3724           
1 52305U 22041AW  26160.93745227  .00000219  00000+0  31883-4 0  9996
2 52305  53.1655  45.0596 0001246 103.2813 256.8318 15.08833907228438
STARLINK-3747           
1 52306U 22041AX  26161.00004630  .00017525  00000+0  11167-2 0  9991
2 52306  53.1595  34.6718 0001343  82.3569  33.0684 15.08831153  5812
STARLINK-3755           
1 52307U 22041AY  26160.99262915 -.00000748  00000+0 -28928-4 0  9997
2 52307  53.1628  44.6961 0001262  70.8918 289.2210 15.08834587228441
STARLINK-3756           
1 52309U 22041BA  26160.90890484  .00001414  00000+0  10690-3 0  9993
2 52309  53.1637  35.0796 0001210  89.1214 270.9917 15.08833596229786
STARLINK-3688           
1 52310U 22041BB  26160.97147218 -.00000124  00000+0  10322-4 0  9993
2 52310  53.1620  34.8653 0001231  99.1895 260.9235 15.08835514229793
STARLINK-3750           
1 52311U 22041BC  26160.96779904  .00001919  00000+0  13865-3 0  9992
2 52311  53.1640  34.8151 0001808  57.0420 303.0746 15.08830546229792
STARLINK-3752           
1 52312U 22041BD  26160.92729873 -.00000756  00000+0 -29394-4 0  9994
2 52312  53.1616  34.9492 0002053  88.2336 271.8890 15.08837525229796
